GSAT-29                 
1 43698U 18089A   26180.52805645  .00000096  00000+0  00000+0 0  9991
2 43698   0.0789 261.3621 0003755 173.9957  87.3706  1.00271583 27915
ES'HAIL 2               
1 43700U 18090A   26180.30843590  .00000000  00000+0  00000+0 0  9999
2 43700   0.0280  28.9028 0002229 103.4866 281.8248  1.00270954 27794
GEO-KOMPSAT-2A          
1 43823U 18100A   26180.55044823 -.00000333  00000+0  00000+0 0  9996
2 43823   0.0426 125.2771 0002392 326.1025 152.6796  1.00271412 27759
GSAT-11                 
1 43824U 18100B   26180.53186978 -.00000066  00000+0  00000+0 0  9996
2 43824   0.0863 266.4846 0008225 186.6302  89.9879  1.00272254 27607
GSAT-7A                 
1 43864U 18105A   26180.52961645  .00000037  00000+0  00000+0 0  9993
2 43864   0.0491  95.0946 0002251 345.0362  90.9571  1.00274931 27576
TJS-3                   
1 43874U 18110A   26179.77508838 -.00000208  00000+0  00000+0 0  9997
2 43874   2.5737  80.3621 0002659  75.8867 187.8196  1.00268783 27537
HELLAS-SAT 4 & SGS-1    
1 44034U 19007A   26180.52493644  .00000164  00000+0  00000+0 0  9995
2 44034   0.0751 126.8104 0005563  10.2043   8.5799  1.00268567 27496
GSAT-31                 
1 44035U 19007B   26180.52666977  .00000136  00000+0  00000+0 0  9996
2 44035   0.0454 243.2631 0000655 147.8457 123.9481  1.00272000 27092
NUSANTARA SATU          
1 44048U 19009A   26179.90449765 -.00000223  00000+0  00000+0 0  9994
2 44048   0.0413 136.4864 0004783 341.4719 270.6623  1.00271454 26887
WGS 10 (USA 291)        
1 44071U 19014A   26180.24395170  .00000060  00000+0  00000+0 0  9993
2 44071   0.0193  28.7529 0000855   5.3134  31.3784  1.00260606 26733
TIANLIAN 2-01           
1 44076U 19017A   26180.53247646 -.00000096  00000+0  00000+0 0  9997
2 44076   0.5708  83.1242 0001359  43.8000  59.3965  1.00272321 26773
ARABSAT-6A              
1 44186U 19021A   26180.52320308  .00000164  00000+0  00000+0 0  9995
2 44186   0.0475   2.9061 0000846 279.5946 213.9216  1.00256815 26289
BEIDOU-3 IGSO-1         
1 44204U 19023A   26179.48568773 -.00000206  00000+0  00000+0 0  9999
2 44204  58.7105  37.5330 0025747 224.4783 307.9858  1.00288999  7326
BEIDOU-2 G8             
1 44231U 19027A   26178.97744683 -.00000238  00000+0  00000+0 0  9997
2 44231   1.6855  74.5233 0009835 285.1014  52.8069  1.00268598 26187
YAMAL 601               
1 44307U 19031A   26180.52692977  .00000131  00000+0  00000+0 0  9999
2 44307   0.0130  65.3398 0002822  28.3833  62.5754  1.00271621 26051
AT&T T-16               
1 44333U 19034A   26180.32308647 -.00000104  00000+0  00000+0 0  9998
2 44333   0.0131  53.4207 0000404 280.1644 319.2766  1.00268897 25752
EUTELSAT 7C             
1 44334U 19034B   26180.30470921  .00000059  00000+0  00000+0 0  9990
2 44334   0.0742 182.3629 0003551 256.5242 315.2088  1.00265953  6952
COSMOS 2539             
1 44457U 19048A   26179.59283616  .00000092  00000+0  00000+0 0  9990
2 44457   0.0375  90.1467 0000679 349.4312  62.5262  1.00272077 25349
EDRS-C                  
1 44475U 19049A   26180.54537949 -.00000250  00000+0  00000+0 0  9996
2 44475   0.0150  81.5288 0001294  27.9782 146.9469  1.00275001 25333
INTELSAT 39 (IS-39)     
1 44476U 19049B   26180.24421171  .00000000  00000+0  00000+0 0  9995
2 44476   0.0247  15.7023 0001425 340.6402  70.8522  1.00261592 25242
AMOS-17                 
1 44479U 19050A   26179.95027228  .00000121  00000+0  00000+0 0  9995
2 44479   0.0225 324.9756 0002306 161.0759 150.0776  1.00273067 25307
AEHF-5 (USA 292)        
1 44481U 19051A   26180.39301926 -.00000245  00000+0  00000+0 0  9997
2 44481   1.4433 337.1253 0065698 359.5938 175.3298  1.00270686 25381
EUTELSAT 5 WEST B       
1 44624U 19067A   26180.37356255 -.00000031  00000+0  00000+0 0  9999
2 44624   0.0628 347.6880 0003472 109.6348 309.6099  1.00271597 24555
MEV-1                   
1 44625U 19067B   26167.92963140 -.00000149  00000+0  00000+0 0  9993
2 44625   0.8740 268.9828 0002794 179.8034 307.2103  1.00269616 61744
TJS-4                   
1 44637U 19070A   26180.53377647 -.00000159  00000+0  00000+0 0  9994
2 44637   0.0473  85.6240 0004187 321.4845 146.2123  1.00272870 24666
TIBA-1                  
1 44800U 19080A   26180.52424309  .00000167  00000+0  00000+0 0  9992
2 44800   0.0513  10.3767 0002298  94.4848  36.9655  1.00270297 24186
INMARSAT GX5            
1 44801U 19080B   26180.51923816  .00000086  00000+0  00000+0 0  9999
2 44801   0.0347 350.0528 0002328 105.4286  20.0478  1.00274142  6915
JCSAT-18 (KACIFIC 1)    
1 44868U 19091A   26180.33297575 -.00000189  00000+0  00000+0 0  9995
2 44868   0.0496 221.2382 0000189 219.1437 106.9115  1.00271565 24136
