OBJECT_NAME,OBJECT_ID,EPOCH,MEAN_MOTION,ECCENTRICITY,INCLINATION,RA_OF_ASC_NODE,ARG_OF_PERICENTER,MEAN_ANOMALY,EPHEMERIS_TYPE,CLASSIFICATION_TYPE,NORAD_CAT_ID,ELEMENT_SET_NO,REV_AT_EPOCH,BSTAR,MEAN_MOTION_DOT,MEAN_MOTION_DDOT
GSAT-29,2018-089A,2026-06-29T12:40:24.077280,1.00271583,.0003755,0.0789,261.3621,173.9957,87.3706,0,U,43698,999,2791,0,.96E-6,0
ES'HAIL 2,2018-090A,2026-06-29T07:24:08.861760,1.00270954,.0002229,0.0280,28.9028,103.4866,281.8248,0,U,43700,999,2779,0,0,0
GEO-KOMPSAT-2A,2018-100A,2026-06-29T13:12:38.727072,1.00271412,.0002392,0.0426,125.2771,326.1025,152.6796,0,U,43823,999,2775,0,-.333E-5,0
GSAT-11,2018-100B,2026-06-29T12:45:53.548992,1.00272254,.0008225,0.0863,266.4846,186.6302,89.9879,0,U,43824,999,2760,0,-.66E-6,0
GSAT-7A,2018-105A,2026-06-29T12:42:38.861280,1.00274931,.0002251,0.0491,95.0946,345.0362,90.9571,0,U,43864,999,2757,0,.37E-6,0
TJS-3,2018-110A,2026-06-28T18:36:07.636032,1.00268783,.0002659,2.5737,80.3621,75.8867,187.8196,0,U,43874,999,2753,0,-.208E-5,0
HELLAS-SAT 4 & SGS-1,2019-007A,2026-06-29T12:35:54.508416,1.00268567,.0005563,0.0751,126.8104,10.2043,8.5799,0,U,44034,999,2749,0,.164E-5,0
GSAT-31,2019-007B,2026-06-29T12:38:24.268128,1.00272000,.0000655,0.0454,243.2631,147.8457,123.9481,0,U,44035,999,2709,0,.136E-5,0
NUSANTARA SATU,2019-009A,2026-06-28T21:42:28.596960,1.00271454,.0004783,0.0413,136.4864,341.4719,270.6623,0,U,44048,999,2688,0,-.223E-5,0
WGS 10 (USA 291),2019-014A,2026-06-29T05:51:17.426880,1.00260606,.0000855,0.0193,28.7529,5.3134,31.3784,0,U,44071,999,2673,0,.6E-6,0
TIANLIAN 2-01,2019-017A,2026-06-29T12:46:45.966144,1.00272321,.0001359,0.5708,83.1242,43.8000,59.3965,0,U,44076,999,2677,0,-.96E-6,0
ARABSAT-6A,2019-021A,2026-06-29T12:33:24.746112,1.00256815,.0000846,0.0475,2.9061,279.5946,213.9216,0,U,44186,999,2628,0,.164E-5,0
BEIDOU-3 IGSO-1,2019-023A,2026-06-28T11:39:23.419872,1.00288999,.0025747,58.7105,37.5330,224.4783,307.9858,0,U,44204,999,732,0,-.206E-5,0
BEIDOU-2 G8,2019-027A,2026-06-27T23:27:31.406112,1.00268598,.00098358,1.6855,74.5233,285.1014,52.8069,0,U,44231,999,2618,0,-.238E-5,0
YAMAL 601,2019-031A,2026-06-29T12:38:46.732128,1.00271621,.0002822,0.0130,65.3398,28.3833,62.5754,0,U,44307,999,2605,0,.131E-5,0
AT&T T-16,2019-034A,2026-06-29T07:45:14.671008,1.00268897,.0000404,0.0131,53.4207,280.1644,319.2766,0,U,44333,999,2575,0,-.104E-5,0
EUTELSAT 7C,2019-034B,2026-06-29T07:18:46.875744,1.00265953,.0003551,0.0742,182.3629,256.5242,315.2088,0,U,44334,999,695,0,.59E-6,0
COSMOS 2539,2019-048A,2026-06-28T14:13:41.044224,1.00272077,.00006797,0.0375,90.1467,349.4312,62.5262,0,U,44457,999,2534,0,.92E-6,0
EDRS-C,2019-049A,2026-06-29T13:05:20.787936,1.00275001,.0001294,0.0150,81.5288,27.9782,146.9469,0,U,44475,999,2533,0,-.25E-5,0
INTELSAT 39 (IS-39),2019-049B,2026-06-29T05:51:39.891744,1.00261592,.0001425,0.0247,15.7023,340.6402,70.8522,0,U,44476,999,2524,0,0,0
AMOS-17,2019-050A,2026-06-28T22:48:23.524992,1.00273067,.00023067,0.0225,324.9756,161.0759,150.0776,0,U,44479,999,2530,0,.121E-5,0
AEHF-5 (USA 292),2019-051A,2026-06-29T09:25:56.864064,1.00270686,.0065698,1.4433,337.1253,359.5938,175.3298,0,U,44481,999,2538,0,-.245E-5,0
EUTELSAT 5 WEST B,2019-067A,2026-06-29T08:57:55.804320,1.00271597,.0003472,0.0628,347.6880,109.6348,309.6099,0,U,44624,999,2455,0,-.31E-6,0
MEV-1,2019-067B,2026-06-16T22:18:40.152960,1.00269616,.00027946,0.8740,268.9828,179.8034,307.2103,0,U,44625,999,6174,0,-.149E-5,0
TJS-4,2019-070A,2026-06-29T12:48:38.287008,1.00272870,.0004187,0.0473,85.6240,321.4845,146.2123,0,U,44637,999,2466,0,-.159E-5,0
TIBA-1,2019-080A,2026-06-29T12:34:54.602976,1.00270297,.0002298,0.0513,10.3767,94.4848,36.9655,0,U,44800,999,2418,0,.167E-5,0
INMARSAT GX5,2019-080B,2026-06-29T12:27:42.177024,1.00274142,.0002328,0.0347,350.0528,105.4286,20.0478,0,U,44801,999,691,0,.86E-6,0
JCSAT-18 (KACIFIC 1),2019-091A,2026-06-29T07:59:29.104800,1.00271565,.0000189,0.0496,221.2382,219.1437,106.9115,0,U,44868,999,2413,0,-.189E-5,0
